{
  "type": "Feature",
  "geometry": {
    "coordinates": [
      [
        [
          26.7787436,
          48.38766348
        ],
        [
          27.6373314,
          39.6089319
        ],
        [
          47.14231427,
          38.86511141
        ],
        [
          49.30978739,
          47.38222191
        ],
        [
          26.7787436,
          48.38766348
        ]
      ]
    ],
    "type": "Polygon"
  },
  "properties": {
    "anchors": [
      {
        "lon": 27.6373314,
        "lat": 47.38222191,
        "x": 263483.3904,
        "z": -504251.2866
      },
      {
        "lon": 34.26551519,
        "lat": 47.38222191,
        "x": 250301.8334,
        "z": -3994.393467
      },
      {
        "lon": 47.14231427,
        "lat": 47.38222191,
        "x": 347340.5222,
        "z": 966978.4526
      },
      {
        "lon": 27.6373314,
        "lat": 45.12949706,
        "x": 13227.81078,
        "z": -521221.5831
      },
      {
        "lon": 34.26551519,
        "lat": 45.12949706,
        "x": 0,
        "z": -2.328306437e-10
      },
      {
        "lon": 47.14231427,
        "lat": 45.12949706,
        "x": 97480.98072,
        "z": 1012461.569
      },
      {
        "lon": 27.6373314,
        "lat": 39.6089319,
        "x": -600000,
        "z": -560000
      },
      {
        "lon": 34.26551519,
        "lat": 39.6089319,
        "x": -612996.0653,
        "z": 9122.376397
      },
      {
        "lon": 47.14231427,
        "lat": 39.6089319,
        "x": -516977.1865,
        "z": 1116766.166
      }
    ],
    "type": "TERRAIN",
    "center": {
      "lon": 34.26551519,
      "lat": 45.12949706
    },
    "projection": {
      "scale": 0.9996,
      "proj": "+proj=tmerc +lat_0=0 +lon_0=33 +k_0=0.9996 +x_0=-99517 +y_0=-4998115 +towgs84=0,0,0,0,0,0,0 +units=m +vunits=m +ellps=WGS84 +no_defs +axis=neu",
      "offset": {
        "y": 0,
        "x": -4998115,
        "z": -99517
      }
    },
    "id": "Caucasus",
    "hemisphere": "n",
    "utm": {
      "endLon": 36,
      "startLon": 30,
      "zone": 36,
      "centralMeridian": 33
    },
    "name": "Caucasus"
  }
}